0 COSMOS 2251 DEB
1 33805U 93036AW  13281.13144829  .00000663  00000-0  17236-3 0  8432
2 33805 074.0346 066.6251 0069663 285.5304 187.8149 14.50327304246265
0 COSMOS 2251 DEB
1 33805U 93036AW  13283.39207014  .00000708  00000-0  18342-3 0  8448
2 33805 074.0349 062.3765 0069701 280.7869 110.8696 14.50333803246597
0 COSMOS 2251 DEB
1 33805U 93036AW  13285.46668134  .00000658  00000-0  17097-3 0  8453
2 33805 074.0354 058.4776 0069718 276.4575 142.7483 14.50336594246896
0 COSMOS 2251 DEB
1 33805U 93036AW  13287.75418646  .00001006  00000-0  25752-3 0  8464
2 33805 074.0359 054.1791 0069784 271.7009 206.1935 14.50340796247228
0 COSMOS 2251 DEB
1 33805U 93036AW  13289.82406032  .00001050  00000-0  26827-3 0  8474
2 33805 074.0362 050.2897 0069744 267.3863 213.3969 14.50346077247529
0 COSMOS 2251 DEB
1 33805U 93036AW  13292.03058050  .00001154  00000-0  29405-3 0  8485
2 33805 074.0362 046.1435 0069704 262.7704 214.1138 14.50349878247844
0 COSMOS 2251 DEB
1 33805U 93036AW  13294.44175181  .00001180  00000-0  30054-3 0  8499
2 33805 074.0362 041.6127 0069710 257.7436 203.3791 14.50356756248192
